NORAD_CAT_ID,OBJECT_NAME,OBJECT_TYPE,EPOCH,MEAN_MOTION,ECCENTRICITY,INCLINATION,RA_OF_ASC_NODE,ARG_OF_PERICENTER,MEAN_ANOMALY,BSTAR,MEAN_MOTION_DOT,MEAN_MOTION_DDOT,TLE_LINE0,TLE_LINE1,TLE_LINE2,SEMIMAJOR_AXIS,PERIOD,APOGEE,PERIGEE,DECAYED
54793.0,STARLINK-5433,PAYLOAD,2023-10-01 13:53:25,15.08841741,0.0001559,53.2169,54.9951,89.5146,270.6024,9.7734e-05,1.268e-05,0.0,0 STARLINK-5433,1 54793U 22175AM  23274.57876284  .00001268  00000-0  97734-4 0  9991,2 54793  53.2169  54.9951 0001559  89.5146 270.6024 15.08841741 45898,6917.875,95.437,540.819,538.662,0.0
54793.0,STARLINK-5433,PAYLOAD,2023-10-01 17:04:11,15.08847892,0.000154,53.2168,54.4004,83.2076,276.9092,0.00016174,2.288e-05,0.0,0 STARLINK-5433,1 54793U 22175AM  23274.71123880  .00002288  00000-0  16174-3 0  9995,2 54793  53.2168  54.4004 0001540  83.2076 276.9092 15.08847892 45914,6917.856,95.437,540.787,538.656,0.0
54793.0,STARLINK-5433,PAYLOAD,2023-10-02 02:36:30,15.08840366,0.000153,53.2187,52.6131,98.1716,261.945,3.9911e-05,3.47e-06,0.0,0 STARLINK-5433,1 54793U 22175AM  23275.10868131  .00000347  00000-0  39911-4 0  9993,2 54793  53.2187  52.6131 0001530  98.1716 261.9450 15.08840366 43819,6917.879,95.438,540.803,538.686,0.0
54793.0,STARLINK-5433,PAYLOAD,2023-10-02 15:19:35,15.08842116,0.0001616,53.2187,50.2378,94.0545,266.0632,-1.0214e-05,-4.51e-06,0.0,0 STARLINK-5433,1 54793U 22175AM  23275.63860678 -.00000451  00000-0 -10214-4 0  9992,2 54793  53.2187  50.2378 0001616  94.0545 266.0632 15.08842116 46058,6917.874,95.437,540.857,538.621,0.0
54793.0,STARLINK-5433,PAYLOAD,2023-10-03 08:48:50,15.0883771,0.0001492,53.2187,46.9668,95.3329,264.7833,7.9408e-05,9.76e-06,0.0,0 STARLINK-5433,1 54793U 22175AM  23276.36724723  .00000976  00000-0  79408-4 0  9993,2 54793  53.2187  46.9668 0001492  95.3329 264.7833 15.08837710 44003,6917.887,95.438,540.785,538.72,0.0
54793.0,STARLINK-5433,PAYLOAD,2023-10-03 15:10:22,15.08842425,0.0001657,53.2188,45.7781,88.8513,271.2669,8.9207e-05,1.132e-05,0.0,0 STARLINK-5433,1 54793U 22175AM  23276.63220504  .00001132  00000-0  89207-4 0  9994,2 54793  53.2188  45.7781 0001657  88.8513 271.2669 15.08842425 46205,6917.873,95.437,540.884,538.592,0.0
54793.0,STARLINK-5433,PAYLOAD,2023-10-03 16:45:45,15.08847672,0.0001611,53.2184,45.4805,83.8065,276.3111,8.9033e-05,1.129e-05,0.0,0 STARLINK-5433,1 54793U 22175AM  23276.69844185  .00001129  00000-0  89033-4 0  9990,2 54793  53.2184  45.4805 0001611  83.8065 276.3111 15.08847672 44050,6917.857,95.437,540.836,538.607,0.0
54793.0,STARLINK-5433,PAYLOAD,2023-10-04 08:39:37,15.08839826,0.000157,53.2179,42.5061,88.5584,271.5588,0.00024802,3.661e-05,0.0,0 STARLINK-5433,1 54793U 22175AM  23277.36084780  .00003661  00000-0  24802-3 0  9997,2 54793  53.2179  42.5061 0001570  88.5584 271.5588 15.08839826 44156,6917.881,95.438,540.832,538.66,0.0
54793.0,STARLINK-5433,PAYLOAD,2023-10-04 13:25:46,15.08847005,0.0001663,53.2173,41.6141,88.5697,271.5486,0.00030294,4.537e-05,0.0,0 STARLINK-5433,1 54793U 22175AM  23277.55956437  .00004537  00000-0  30294-3 0  9990,2 54793  53.2173  41.6141 0001663  88.5697 271.5486 15.08847005 46345,6917.859,95.437,540.874,538.574,0.0
54793.0,STARLINK-5433,PAYLOAD,2023-10-04 16:36:32,15.0885199,0.0001663,53.2169,41.0192,87.6479,272.4704,0.00028626,4.272e-05,0.0,0 STARLINK-5433,1 54793U 22175AM  23277.69204110  .00004272  00000-0  28626-3 0  9991,2 54793  53.2169  41.0192 0001663  87.6479 272.4704 15.08851990 44202,6917.844,95.437,540.859,538.558,0.0
54793.0,STARLINK-5433,PAYLOAD,2023-10-05 08:30:24,15.08839605,0.0001523,53.217,38.0448,99.6956,260.4208,-9.8679e-07,-3.04e-06,0.0,0 STARLINK-5433,1 54793U 22175AM  23278.35444637 -.00000304  00000-0 -98679-6 0  9997,2 54793  53.2170  38.0448 0001523  99.6956 260.4208 15.08839605 44308,6917.882,95.438,540.8,538.693,0.0
54793.0,STARLINK-5433,PAYLOAD,2023-10-05 13:16:33,15.08840926,0.0001561,53.2173,37.1539,89.5802,270.5369,3.3169e-05,2.4e-06,0.0,0 STARLINK-5433,1 54793U 22175AM  23278.55316636  .00000240  00000-0  33169-4 0  9994,2 54793  53.2173  37.1539 0001561  89.5802 270.5369 15.08840926 46492,6917.878,95.437,540.822,538.663,0.0
54793.0,STARLINK-5433,PAYLOAD,2023-10-05 16:27:19,15.08845624,0.0001592,53.2169,36.5588,92.1456,267.9718,9.8294e-05,1.277e-05,0.0,0 STARLINK-5433,1 54793U 22175AM  23278.68564366  .00001277  00000-0  98294-4 0  9994,2 54793  53.2169  36.5588 0001592  92.1456 267.9718 15.08845624 46514,6917.863,95.437,540.83,538.627,0.0
54793.0,STARLINK-5433,PAYLOAD,2023-10-06 14:42:44,15.08839567,0.0001508,53.2178,32.3973,80.3063,279.81,2.4037e-05,9.5e-07,0.0,0 STARLINK-5433,1 54793U 22175AM  23279.61300981  .00000095  00000-0  24037-4 0  9990,2 54793  53.2178  32.3973 0001508  80.3063 279.8100 15.08839567 46657,6917.882,95.438,540.79,538.703,0.0
54793.0,STARLINK-5433,PAYLOAD,2023-10-07 12:58:08,15.08848123,0.0001311,53.2182,28.2357,81.0565,279.0575,0.00036278,5.492e-05,0.0,0 STARLINK-5433,1 54793U 22175AM  23280.54037230  .00005492  00000-0  36278-3 0  9993,2 54793  53.2182  28.2357 0001311  81.0565 279.0575 15.08848123 46790,6917.856,95.437,540.627,538.814,0.0
54793.0,STARLINK-5433,PAYLOAD,2023-10-07 14:33:31,15.08853005,0.0001419,53.2183,27.94,89.7653,270.3502,0.00045477,6.96e-05,0.0,0 STARLINK-5433,1 54793U 22175AM  23280.60661041  .00006960  00000-0  45477-3 0  9995,2 54793  53.2183  27.9400 0001419  89.7653 270.3502 15.08853005 46809,6917.841,95.437,540.687,538.724,0.0
54793.0,STARLINK-5433,PAYLOAD,2023-10-08 08:02:45,15.08840389,0.0001145,53.2176,24.6663,68.3002,291.8112,0.00012864,1.76e-05,0.0,0 STARLINK-5433,1 54793U 22175AM  23281.33525398  .00001760  00000-0  12864-3 0  9997,2 54793  53.2176  24.6663 0001145  68.3002 291.8112 15.08840389 44751,6917.879,95.438,540.536,538.952,0.0
54793.0,STARLINK-5433,PAYLOAD,2023-10-08 12:48:55,15.08847192,0.0001469,53.2176,23.7799,103.2664,256.8492,0.00020795,3.024e-05,0.0,0 STARLINK-5433,1 54793U 22175AM  23281.53397118  .00003024  00000-0  20795-3 0  9993,2 54793  53.2176  23.7799 0001469 103.2664 256.8492 15.08847192 46947,6917.858,95.437,540.74,538.707,0.0
54793.0,STARLINK-5433,PAYLOAD,2023-10-08 15:59:41,15.08855248,0.0001609,53.2177,23.1803,89.9202,270.1975,0.00048518,7.445e-05,0.0,0 STARLINK-5433,1 54793U 22175AM  23281.66644915  .00007445  00000-0  48518-3 0  9991,2 54793  53.2177  23.1803 0001609  89.9202 270.1975 15.08855248 44801,6917.834,95.437,540.812,538.586,0.0
54793.0,STARLINK-5433,PAYLOAD,2023-10-08 23:56:37,15.08845699,0.0002057,53.2174,21.6927,77.6956,282.4266,0.00031025,4.654e-05,0.0,0 STARLINK-5433,1 54793U 22175AM  23281.99765168  .00004654  00000-0  31025-3 0  9995,2 54793  53.2174  21.6927 0002057  77.6956 282.4266 15.08845699 44859,6917.863,95.437,541.151,538.305,0.0
54793.0,STARLINK-5433,PAYLOAD,2023-10-09 07:53:32,15.08830971,0.0001367,53.2179,20.2091,82.929,277.1857,-4.7071e-05,-1.037e-05,0.0,0 STARLINK-5433,1 54793U 22175AM  23282.32885360 -.00001037  00000-0 -47071-4 0  9993,2 54793  53.2179  20.2091 0001367  82.9290 277.1857 15.08830971 44904,6917.908,95.438,540.719,538.827,0.0
54793.0,STARLINK-5433,PAYLOAD,2023-10-09 12:39:42,15.08841825,0.0001818,53.2183,19.3146,78.0532,282.0664,0.00041259,6.285e-05,0.0,0 STARLINK-5433,1 54793U 22175AM  23282.52757338  .00006285  00000-0  41259-3 0  9997,2 54793  53.2183  19.3146 0001818  78.0532 282.0664 15.08841825 47099,6917.875,95.437,540.997,538.482,0.0
54793.0,STARLINK-5433,PAYLOAD,2023-10-09 14:15:05,15.088465,0.0001808,53.2182,19.0149,78.7451,281.3744,0.00061892,9.578e-05,0.0,0 STARLINK-5433,1 54793U 22175AM  23282.59381273  .00009578  00000-0  61892-3 0  9998,2 54793  53.2182  19.0149 0001808  78.7451 281.3744 15.08846500 44941,6917.861,95.437,540.976,538.475,0.0
54793.0,STARLINK-5433,PAYLOAD,2023-10-10 10:55:06,15.08848272,0.0001754,53.2177,15.1531,76.122,283.9968,0.00036681,5.556e-05,0.0,0 STARLINK-5433,1 54793U 22175AM  23283.45493148  .00005556  00000-0  36681-3 0  9999,2 54793  53.2177  15.1531 0001754  76.1220 283.9968 15.08848272 45072,6917.855,95.437,540.933,538.507,0.0
54793.0,STARLINK-5433,PAYLOAD,2023-10-10 12:30:28,15.08855143,0.0001669,53.2169,14.8536,89.54,270.5783,0.0005707,8.81e-05,0.0,0 STARLINK-5433,1 54793U 22175AM  23283.52116877  .00008810  00000-0  57070-3 0  9999,2 54793  53.2169  14.8536 0001669  89.5400 270.5783 15.08855143 47240,6917.834,95.437,540.854,538.545,0.0
54793.0,STARLINK-5433,PAYLOAD,2023-10-11 10:45:52,15.08846023,0.0001632,53.2194,10.689,112.3092,247.8074,0.00023359,3.432e-05,0.0,0 STARLINK-5433,1 54793U 22175AM  23284.44852939  .00003432  00000-0  23359-3 0  9995,2 54793  53.2194  10.6890 0001632 112.3092 247.8074 15.08846023 45220,6917.862,95.437,540.856,538.598,0.0
54793.0,STARLINK-5433,PAYLOAD,2023-10-11 12:21:16,15.0884605,0.0001477,53.2178,10.3933,87.8729,272.2433,0.00032226,4.845e-05,0.0,0 STARLINK-5433,1 54793U 22175AM  23284.51477065  .00004845  00000-0  32226-3 0  9998,2 54793  53.2178  10.3933 0001477  87.8729 272.2433 15.08846050 47398,6917.862,95.437,540.749,538.705,0.0
54793.0,STARLINK-5433,PAYLOAD,2023-10-11 17:07:25,15.08855811,0.0001392,53.2177,9.501,85.2186,274.8966,0.00065273,0.0001012,0.0,0 STARLINK-5433,1 54793U 22175AM  23284.71348858  .00010120  00000-0  65273-3 0  9998,2 54793  53.2177   9.5010 0001392  85.2186 274.8966 15.08855811 45266,6917.832,95.437,540.66,538.734,0.0
54793.0,STARLINK-5433,PAYLOAD,2023-10-12 10:36:40,15.08835502,0.0001688,53.2181,6.2289,91.8128,268.3057,0.00088102,0.00013759,0.0,0 STARLINK-5433,1 54793U 22175AM  23285.44213649  .00013759  00000-0  88102-3 0  9995,2 54793  53.2181   6.2289 0001688  91.8128 268.3057 15.08835502 45376,6917.894,95.438,540.927,538.591,0.0
54793.0,STARLINK-5433,PAYLOAD,2023-10-12 12:12:03,15.08841517,0.0001679,53.2184,5.9315,92.6877,267.4307,0.0011893,0.00018691,0.0,0 STARLINK-5433,1 54793U 22175AM  23285.50837638  .00018691  00000-0  11893-2 0  9994,2 54793  53.2184   5.9315 0001679  92.6877 267.4307 15.08841517 47547,6917.876,95.437,540.902,538.579,0.0
